{
  "type": "FeatureCollection",
  "features": [
    {
      "type": "Feature",
      "properties": {
        "norad_id": 37044,
        "name": "FENGYUN 1C DEB",
        "group": "fengyun-1c-debris",
        "lat": -80.84059850632052,
        "lon": 165.98727334077333,
        "alt_km": 1025.5232099122295,
        "timestamp": "2025-12-07T07:31:36.587378+00:00",
        "meta_object_name": "FENGYUN 1C DEB",
        "meta_object_id": "1999-025EEC",
        "meta_epoch": "2025-12-04T02:53:44.693952",
        "meta_mean_motion": 13.70576401,
        "meta_eccentricity": 0.05097958,
        "meta_inclination": 98.9648,
        "meta_ra_of_asc_node": 84.7582,
        "meta_arg_of_pericenter": 184.1906,
        "meta_mean_anomaly": 175.4892,
        "meta_ephemeris_type": 0,
        "meta_classification_type": "U",
        "meta_norad_cat_id": 37044,
        "meta_element_set_no": 999,
        "meta_rev_at_epoch": 83740,
        "meta_bstar": 0.0059542897,
        "meta_mean_motion_dot": 0.0001335,
        "meta_mean_motion_ddot": 0,
        "tle_line1": "1 37044U 99025EEC 25338.12065618  .00013350  00000+0  59543-2 0  9992",
        "tle_line2": "2 37044  98.9648  84.7582 0509795 184.1906 175.4892 13.70576401837404"
      },
      "geometry": {
        "type": "Point",
        "coordinates": [
          165.98727334077333,
          -80.84059850632052
        ]
      }
    },
    {
      "type": "Feature",
      "properties": {
        "norad_id": 37046,
        "name": "FENGYUN 1C DEB",
        "group": "fengyun-1c-debris",
        "lat": -30.260339059510155,
        "lon": 0.7521846112970834,
        "alt_km": 779.5847411551713,
        "timestamp": "2025-12-07T07:31:36.587388+00:00",
        "meta_object_name": "FENGYUN 1C DEB",
        "meta_object_id": "1999-025EEE",
        "meta_epoch": "2025-11-28T06:15:00.234432",
        "meta_mean_motion": 14.24764433,
        "meta_eccentricity": 0.00496678,
        "meta_inclination": 98.5468,
        "meta_ra_of_asc_node": 346.9063,
        "meta_arg_of_pericenter": 349.8897,
        "meta_mean_anomaly": 10.1279,
        "meta_ephemeris_type": 0,
        "meta_classification_type": "U",
        "meta_norad_cat_id": 37046,
        "meta_element_set_no": 999,
        "meta_rev_at_epoch": 63975,
        "meta_bstar": 0.00081954575,
        "meta_mean_motion_dot": 1.891e-05,
        "meta_mean_motion_ddot": 0,
        "tle_line1": "1 37046U 99025EEE 25332.26041938  .00001891  00000+0  81955-3 0  9992",
        "tle_line2": "2 37046  98.5468 346.9063 0049667 349.8897  10.1279 14.24764433639751"
      },
      "geometry": {
        "type": "Point",
        "coordinates": [
          0.7521846112970834,
          -30.260339059510155
        ]
      }
    },
    {
      "type": "Feature",
      "properties": {
        "norad_id": 37048,
        "name": "FENGYUN 1C DEB",
        "group": "fengyun-1c-debris",
        "lat": -78.09478552977744,
        "lon": -24.844205667018148,
        "alt_km": 1047.1303807136874,
        "timestamp": "2025-12-07T07:31:36.587398+00:00",
        "meta_object_name": "FENGYUN 1C DEB",
        "meta_object_id": "1999-025EEG",
        "meta_epoch": "2025-12-02T20:47:13.549056",
        "meta_mean_motion": 13.6513046,
        "meta_eccentricity": 0.02527371,
        "meta_inclination": 98.8882,
        "meta_ra_of_asc_node": 198.9974,
        "meta_arg_of_pericenter": 175.2507,
        "meta_mean_anomaly": 198.4807,
        "meta_ephemeris_type": 0,
        "meta_classification_type": "U",
        "meta_norad_cat_id": 37048,
        "meta_element_set_no": 999,
        "meta_rev_at_epoch": 62035,
        "meta_bstar": 0.00029274294,
        "meta_mean_motion_dot": 2.57e-06,
        "meta_mean_motion_ddot": 0,
        "tle_line1": "1 37048U 99025EEG 25336.86612904  .00000257  00000+0  29274-3 0  9992",
        "tle_line2": "2 37048  98.8882 198.9974 0252737 175.2507 198.4807 13.65130460620359"
      },
      "geometry": {
        "type": "Point",
        "coordinates": [
          -24.844205667018148,
          -78.09478552977744
        ]
      }
    },
    {
      "type": "Feature",
      "properties": {
        "norad_id": 37054,
        "name": "FENGYUN 1C DEB",
        "group": "fengyun-1c-debris",
        "lat": -65.94894401505782,
        "lon": -16.34151292730172,
        "alt_km": 906.2923511602476,
        "timestamp": "2025-12-07T07:31:36.587408+00:00",
        "meta_object_name": "FENGYUN 1C DEB",
        "meta_object_id": "1999-025EEN",
        "meta_epoch": "2025-11-29T05:17:38.461056",
        "meta_mean_motion": 14.19427383,
        "meta_eccentricity": 0.01006888,
        "meta_inclination": 98.5491,
        "meta_ra_of_asc_node": 316.1491,
        "meta_arg_of_pericenter": 144.0639,
        "meta_mean_anomaly": 216.7364,
        "meta_ephemeris_type": 0,
        "meta_classification_type": "U",
        "meta_norad_cat_id": 37054,
        "meta_element_set_no": 999,
        "meta_rev_at_epoch": 64237,
        "meta_bstar": 0.00028093156,
        "meta_mean_motion_dot": 5.8e-06,
        "meta_mean_motion_ddot": 0,
        "tle_line1": "1 37054U 99025EEN 25333.22058404  .00000580  00000+0  28093-3 0  9992",
        "tle_line2": "2 37054  98.5491 316.1491 0100688 144.0639 216.7364 14.19427383642375"
      },
      "geometry": {
        "type": "Point",
        "coordinates": [
          -16.34151292730172,
          -65.94894401505782
        ]
      }
    },
    {
      "type": "Feature",
      "properties": {
        "norad_id": 37056,
        "name": "FENGYUN 1C DEB",
        "group": "fengyun-1c-debris",
        "lat": -57.743858837144025,
        "lon": 168.71880168846315,
        "alt_km": 682.5910457130221,
        "timestamp": "2025-12-07T07:31:36.587418+00:00",
        "meta_object_name": "FENGYUN 1C DEB",
        "meta_object_id": "1999-025EEQ",
        "meta_epoch": "2025-12-06T18:51:26.283168",
        "meta_mean_motion": 14.50419331,
        "meta_eccentricity": 0.02687276,
        "meta_inclination": 98.982,
        "meta_ra_of_asc_node": 2.6694,
        "meta_arg_of_pericenter": 163.7082,
        "meta_mean_anomaly": 197.2964,
        "meta_ephemeris_type": 0,
        "meta_classification_type": "U",
        "meta_norad_cat_id": 37056,
        "meta_element_set_no": 999,
        "meta_rev_at_epoch": 65325,
        "meta_bstar": 0.00055244919,
        "meta_mean_motion_dot": 3.381e-05,
        "meta_mean_motion_ddot": 0,
        "tle_line1": "1 37056U 99025EEQ 25340.78572087  .00003381  00000+0  55245-3 0  9992",
        "tle_line2": "2 37056  98.9820   2.6694 0268727 163.7082 197.2964 14.50419331653255"
      },
      "geometry": {
        "type": "Point",
        "coordinates": [
          168.71880168846315,
          -57.743858837144025
        ]
      }
    },
    {
      "type": "Feature",
      "properties": {
        "norad_id": 37057,
        "name": "FENGYUN 1C DEB",
        "group": "fengyun-1c-debris",
        "lat": -28.223710398400623,
        "lon": 1.1240012168423306,
        "alt_km": 1120.3426766255589,
        "timestamp": "2025-12-07T07:31:36.587428+00:00",
        "meta_object_name": "FENGYUN 1C DEB",
        "meta_object_id": "1999-025EER",
        "meta_epoch": "2025-12-06T19:37:50.575008",
        "meta_mean_motion": 13.96093686,
        "meta_eccentricity": 0.02847916,
        "meta_inclination": 98.9237,
        "meta_ra_of_asc_node": 355.8055,
        "meta_arg_of_pericenter": 155.7322,
        "meta_mean_anomaly": 205.7563,
        "meta_ephemeris_type": 0,
        "meta_classification_type": "U",
        "meta_norad_cat_id": 37057,
        "meta_element_set_no": 999,
        "meta_rev_at_epoch": 63515,
        "meta_bstar": 0.00049940714,
        "meta_mean_motion_dot": 9.22e-06,
        "meta_mean_motion_ddot": 0,
        "tle_line1": "1 37057U 99025EER 25340.81794647  .00000922  00000+0  49941-3 0  9999",
        "tle_line2": "2 37057  98.9237 355.8055 0284791 155.7322 205.7563 13.96093686635158"
      },
      "geometry": {
        "type": "Point",
        "coordinates": [
          1.1240012168423306,
          -28.223710398400623
        ]
      }
    },
    {
      "type": "Feature",
      "properties": {
        "norad_id": 37061,
        "name": "FENGYUN 1C DEB",
        "group": "fengyun-1c-debris",
        "lat": 53.64990126595443,
        "lon": -121.91667617371783,
        "alt_km": 1336.7089166124724,
        "timestamp": "2025-12-07T07:31:36.587448+00:00",
        "meta_object_name": "FENGYUN 1C DEB",
        "meta_object_id": "1999-025EEV",
        "meta_epoch": "2025-12-05T11:04:28.984512",
        "meta_mean_motion": 13.13404917,
        "meta_eccentricity": 0.08002301,
        "meta_inclination": 98.0947,
        "meta_ra_of_asc_node": 45.5023,
        "meta_arg_of_pericenter": 23.0897,
        "meta_mean_anomaly": 340.4177,
        "meta_ephemeris_type": 0,
        "meta_classification_type": "U",
        "meta_norad_cat_id": 37061,
        "meta_element_set_no": 999,
        "meta_rev_at_epoch": 8060,
        "meta_bstar": 0.0048673504,
        "meta_mean_motion_dot": 9.37e-05,
        "meta_mean_motion_ddot": 0,
        "tle_line1": "1 37061U 99025EEV 25339.46144658  .00009370  00000+0  48674-2 0  9991",
        "tle_line2": "2 37061  98.0947  45.5023 0800230  23.0897 340.4177 13.13404917 80600"
      },
      "geometry": {
        "type": "Point",
        "coordinates": [
          -121.91667617371783,
          53.64990126595443
        ]
      }
    }
  ]
}